satname,norad_id,inclination_deg,eccentricity,mean_motion_rev_per_day,perigee_km,apogee_km,l1,l2
STARLINK-1267,45384,53.0537,0.0001626,15.06370606,546.1755714555547,548.4277241038117,1 45384U 20019AA  25328.50834338  .00000279  00000+0  37632-4 0  9992,2 45384  53.0537 259.4554 0001626 116.9693 243.1463 15.06370606314143
STARLINK-1272,45386,53.0532,0.0007927,15.37754057,447.3375540908455,458.1672461457938,1 45386U 20019AC  25328.70610016  .00063365  00000+0  16785-2 0  9990,2 45386  53.0532 250.7948 0007927  91.1508 269.0403 15.37754057314286
STARLINK-1274,45387,53.0355,0.0003997,15.31731213,467.909493531055,473.3844114226649,1 45387U 20019AD  25328.48976866  .00039337  00000+0  12712-2 0  9992,2 45387  53.0355 240.0267 0003997  49.7713 310.3636 15.31731213314412
STARLINK-1280,45388,53.0535,0.0009152,15.44032564,427.9875043706443,440.45684660545703,1 45388U 20019AE  25328.91670139  .00067879  00000+0  14587-2 0  9999,2 45388  53.0535 268.2931 0009152  81.0357 101.0666 15.44032564  5877
STARLINK-1283,45389,53.0519,0.0009117,15.33645278,458.70851290119117,471.1861929102797,1 45389U 20019AF  25328.21292816  .00053475  00000+0  16189-2 0  9992,2 45389  53.0519 252.3265 0009117  87.0133 273.1911 15.33645278314229
STARLINK-1284,45390,53.0551,0.000136,15.06386506,546.3110623850143,548.1947684420065,1 45390U 20019AG  25328.19494707  .00006032  00000+0  42367-3 0  9999,2 45390  53.0551 260.1994 0001360  85.3942 274.7202 15.06386506314107
STARLINK-1297,45395,53.0551,0.0001654,15.06400086,546.0658417527893,548.3567469685631,1 45395U 20019AM  25328.09910425  .00009534  00000+0  65807-3 0  9997,2 45395  53.0551 260.6348 0001654  96.8500 263.2677 15.06400086313279
STARLINK-1307,45397,53.0546,0.0001495,15.06437762,546.0605029572507,548.1311475720049,1 45397U 20019AP  25328.22442647  .00013964  00000+0  95351-3 0  9999,2 45397  53.0546 260.0687 0001495  82.4116 277.7043 15.06437762313933
STARLINK-1255,45399,53.0479,0.0006746,15.33594488,460.481992865396,469.71488612035864,1 45399U 20019AR  25328.48181733  .00050835  00000+0  15433-2 0  9995,2 45399  53.0479 242.1412 0006746  94.8223 265.3548 15.33594488314198
STARLINK-1260,45404,53.054,0.0001392,15.06419281,546.1884647870047,548.1164653740834,1 45404U 20019AW  25328.49071380 -.00003390  00000+0 -20869-3 0  9995,2 45404  53.0540 248.8712 0001392  88.8773 271.2375 15.06419281314006
STARLINK-1263,45405,53.0551,0.0001974,15.06393344,545.8648898625024,548.5990255269999,1 45405U 20019AX  25328.47599606  .00004802  00000+0  34109-3 0  9999,2 45405  53.0551 248.9438 0001974  94.0738 266.0477 15.06393344314007
STARLINK-1265,45406,53.0541,0.0001617,15.06392955,546.1133175795167,548.3529822860055,1 45406U 20019AY  25328.21798508  .00004809  00000+0  34158-3 0  9995,2 45406  53.0541 250.1019 0001617  91.5465 268.5710 15.06392955313968
STARLINK-1278,45408,53.0539,0.0008401,15.36966948,449.34376112374594,460.8249396366555,1 45408U 20019BA  25328.91670139  .00058521  00000+0  15918-2 0  9995,2 45408  53.0539 269.8849 0008401  76.1008 359.2254 15.36966948  5922
STARLINK-1296,45412,53.0547,0.0001512,15.06413128,546.1242161828504,548.218429419665,1 45412U 20019BE  25328.15531551  .00017994  00000+0  12234-2 0  9997,2 45412  53.0547 250.3841 0001512  82.7855 277.3306 15.06413128313959
STARLINK-1298,45413,53.0448,0.0008961,15.5660297,391.42534694611186,403.5686381875903,1 45413U 20019BF  25328.91670139  .00085570  00000+0  11739-2 0  9992,2 45413  53.0448 214.7081 0008961  49.5748 188.6499 15.56602970  5974
STARLINK-1309,45414,53.0525,0.000145,15.06405297,546.1911502568582,548.1994966306565,1 45414U 20019BG  25328.63450013  .00004077  00000+0  29239-3 0  9997,2 45414  53.0525 248.2332 0001450  79.5470 280.5682 15.06405297314015
STARLINK-1316,45415,53.0565,0.0001759,15.06408788,545.966460041237,548.4027881885995,1 45415U 20019BH  25328.06317024 -.00001559  00000+0 -85772-4 0  9998,2 45415  53.0565 250.7942 0001759  74.9754 285.1430 15.06408788313964
STARLINK-1318,45416,53.048,0.0005693,15.63605764,373.4056983901446,381.0973837830261,1 45416U 20019BJ  25328.10708894  .00063703  00000+0  67287-3 0  9990,2 45416  53.0480 208.9015 0005693 115.8884 244.2717 15.63605764314542
STARLINK-1286,45417,53.0543,0.0004977,15.38712257,446.51792386283705,453.31456806386905,1 45417U 20019BK  25328.58136433  .00039743  00000+0  10280-2 0  9994,2 45417  53.0543 271.6077 0004977  75.1057 285.0497 15.38712257313974
STARLINK-1308,45419,53.0549,0.0001348,15.06395762,546.2910080918327,548.158085564859,1 45419U 20019BM  25328.56168818  .00002584  00000+0  19235-3 0  9999,2 45419  53.0549 278.5554 0001348  98.5687 261.5454 15.06395762313622
STARLINK-1329,45531,53.0525,0.0001309,15.06424151,546.2310211533268,548.0440580277927,1 45531U 20025A   25327.99959484  .00017074  00000+0  11616-2 0  9998,2 45531  53.0525 221.0814 0001309 102.5919 257.5216 15.06424151309164
STARLINK-1338,45532,53.0538,0.0001447,15.06395849,546.2221804073961,548.2263799618822,1 45532U 20025B   25328.67412222  .00004713  00000+0  33509-3 0  9991,2 45532  53.0538 218.0509 0001447  84.3125 275.8029 15.06395849309262
STARLINK-1350,45535,53.0722,0.0002336,15.33061564,465.08529777372587,468.2831982607995,1 45535U 20025E   25328.54681021  .00009974  00000+0  31899-3 0  9999,2 45535  53.0722 165.8070 0002336  97.3310 262.7957 15.33061564310014
STARLINK-1362,45538,53.0529,0.0001565,15.06389794,546.1590160902961,548.3266599795998,1 45538U 20025H   25328.44093875  .00012427  00000+0  85191-3 0  9996,2 45538  53.0529 218.8171 0001565  99.9159 260.2006 15.06389794309233
STARLINK-1368,45540,53.055,0.0001943,15.06396615,545.876335254592,548.5675297357593,1 45540U 20025K   25327.98116302 -.00000247  00000+0  23011-5 0  9991,2 45540  53.0550 221.1649 0001943  80.4989 279.6219 15.06396615309154
STARLINK-1371,45542,53.0542,0.0001881,15.06394402,545.9260537641485,548.5313763461518,1 45542U 20025M   25328.68148466  .00000789  00000+0  71850-4 0  9990,2 45542  53.0542 218.0163 0001881  91.1295 268.9910 15.06394402309266
STARLINK-1372,45543,53.0538,0.0001744,15.06395726,546.0168740906702,548.4324402366883,1 45543U 20025N   25327.98853063  .00006078  00000+0  42664-3 0  9996,2 45543  53.0538 221.1309 0001744  84.6454 275.4734 15.06395726308256
STARLINK-1373,45544,53.0528,0.0001262,15.06396823,546.3473147859895,548.0952752196481,1 45544U 20025P   25328.67043161  .00003473  00000+0  25198-3 0  9993,2 45544  53.0528 218.0690 0001262  97.6590 262.4542 15.06396823309268
STARLINK-1294,45551,53.0451,0.0005508,15.6419723,371.82857161867287,379.2684315672277,1 45551U 20025W   25328.74536625  .00083988  00000+0  86284-3 0  9993,2 45551  53.0451 141.2504 0005508 136.6499 223.4949 15.64197230310356
STARLINK-1325,45554,53.0512,0.000483,15.71039744,352.67166475527847,359.176767890247,1 45554U 20025Z   25328.91670139  .00353570  00000+0  26491-2 0  9994,2 45554  53.0512 132.7299 0004830 294.8596  84.6993 15.71039744  5940
STARLINK-1327,45555,53.0529,0.0001645,15.06394215,546.0900654324196,548.3685109412318,1 45555U 20025AA  25327.91297205  .00002290  00000+0  17259-3 0  9996,2 45555  53.0529 201.4738 0001645  77.1340 282.9833 15.06394215309422
STARLINK-1356,45564,53.0528,0.0001438,15.06417239,546.1628658649825,548.1545809150302,1 45564U 20025AK  25327.91666687  .00021199  00000+0  14371-2 0  9990,2 45564  53.0528 201.4463 0001438 113.3998 246.7142 15.06417239309421
STARLINK-1357,45565,53.0579,0.0010075,15.36105078,450.75303200115195,464.52712281212735,1 45565U 20025AL  25328.55872330  .00068302  00000+0  19049-2 0  9990,2 45565  53.0579 178.9088 0010075  96.6147 263.6002 15.36105078309808
STARLINK-1361,45567,53.0531,0.0001741,15.06401154,546.002318528569,548.413723664914,1 45567U 20025AN  25328.66490558  .00005485  00000+0  38685-3 0  9993,2 45567  53.0531 198.0893 0001741  92.1865 267.9323 15.06401154309548
STARLINK-1363,45568,53.0507,0.0006784,15.45314315,425.8357276756651,435.0736248620269,1 45568U 20025AP  25327.98800262  .00099660  00000+0  20392-2 0  9998,2 45568  53.0507 192.6233 0006784 135.4452 224.7100 15.45314315309555
STARLINK-1366,45569,53.0511,0.0004933,15.42886608,434.23274289485653,440.95714403027796,1 45569U 20025AQ  25328.62175536  .00015147  00000+0  34823-3 0  9993,2 45569  53.0511 189.3334 0004933 137.9050 222.2334 15.42886608309650
STARLINK-1376,45570,53.0549,0.0001674,15.06396582,546.0627285335722,548.3813387380342,1 45570U 20025AR  25328.06409171 -.00000282  00000+0 -20219-7 0  9992,2 45570  53.0549 200.7914 0001674  81.5136 278.6042 15.06396582309448
STARLINK-1320,45572,53.0563,0.000968,15.45343811,423.7774059894482,436.9586717446946,1 45572U 20025AT  25328.72949008  .00026997  00000+0  56303-3 0  9993,2 45572  53.0563 134.6706 0009680 100.0066 260.2033 15.45343811310454
STARLINK-1321,45573,53.0548,0.0001467,15.06401993,546.1895019496878,548.221397424426,1 45573U 20025AU  25328.64739531  .00000973  00000+0  84203-4 0  9990,2 45573  53.0548 188.1727 0001467  91.3661 268.7496 15.06401993309371
STARLINK-1328,45576,53.0471,0.0007827,15.7758955,332.0162467299024,342.52854860100797,1 45576U 20025AX  25328.91670139  .00279021  00000+0  15892-2 0  9999,2 45576  53.0471 151.6578 0007827 126.5452 210.0697 15.77589550  6026
STARLINK-1331,45578,53.0542,0.0001642,15.06397511,546.0820428894967,548.3563298611025,1 45578U 20025AZ  25328.62527295  .00001480  00000+0  11828-3 0  9991,2 45578  53.0542 188.2712 0001642  80.2867 279.8308 15.06397511309684
STARLINK-1333,45580,53.0525,0.000125,15.06403342,546.3356479191489,548.0669824979504,1 45580U 20025BB  25328.69806189  .00000277  00000+0  37503-4 0  9995,2 45580  53.0525 197.9420 0001250  88.9056 271.2076 15.06403342309544
STARLINK-1335,45581,53.0516,0.0001314,15.06388926,546.335503100966,548.1554936215343,1 45581U 20025BC  25328.63631824 -.00001627  00000+0 -90405-4 0  9994,2 45581  53.0516 188.2233 0001314  97.5860 262.5278 15.06388926309671
